AMC-3                   
1 24936U 97050A   24158.39848095 -.00000264  00000+0  00000+0 0  9992
2 24936   6.3221  72.2948 0002639 353.9333 260.5103  1.00271029 45009
ASTRA 2A                
1 25462U 98050A   24158.43183905  .00000066  00000+0  00000+0 0  9994
2 25462   5.2215  77.5900 0002852 352.9898  37.4012  1.00273506 38917
NSS-11                  
1 26554U 00059A   24158.54680175  .00000026  00000+0  00000+0 0  9998
2 26554   0.2080  88.2451 0002785 342.2104 197.8218  1.00271570 33869
AMC-6                   
1 26580U 00067A   24158.58844185  .00000106  00000+0  00000+0 0  9992
2 26580   0.0479  74.0775 0002666  19.5952 234.6446  1.00269838 86464
ASTRA 2C                
1 26853U 01025A   24158.38929806 -.00000021  00000+0  00000+0 0  9999
2 26853   6.3446  72.1545 0005254 310.1360 281.3571  0.99024233 37619
AMC-11                  
1 28252U 04017A   24158.61447889 -.00000048  00000+0  00000+0 0  9999
2 28252   0.0188   4.0978 0000956  40.3313 321.2129  1.00271797 73442
AMC-15                  
1 28446U 04041A   24158.61983458 -.00000087  00000+0  00000+0 0  9991
2 28446   0.0187 330.9475 0002175 119.9033 282.7684  1.00272756 71885
NSS-10                  
1 28526U 05003A   24158.48461391 -.00000252  00000+0  00000+0 0  9995
2 28526   4.5904  79.3195 0002751 351.0064 322.0442  1.00273174 45725
ASTRA 1KR               
1 29055U 06012A   24158.56744752  .00000121  00000+0  00000+0 0  9992
2 29055   0.0205 306.2240 0000725 198.1587 334.5222  1.00270328 38296
ASTRA 1L                
1 31306U 07016A   24158.35952142  .00000121  00000+0  00000+0 0  9990
2 31306   0.0478 332.6941 0002209  35.9247  35.2223  1.00270698 37577
ASTRA 4A                
1 32299U 07057A   24158.56448875  .00000034  00000+0  00000+0 0  9996
2 32299   0.0122 343.2284 0002489  80.1208  40.1206  1.00271594 44235
AMC-21                  
1 33275U 08038B   24158.60218925  .00000038  00000+0  00000+0 0  9991
2 33275   1.0304  90.1303 0002485 335.1283 282.1225  1.00269534 58061
ASTRA 1M                
1 33436U 08057A   24158.28116656  .00000122  00000+0  00000+0 0  9997
2 33436   0.0579  88.8710 0004610  16.8666 269.8778  1.00273426 38304
NSS-9                   
1 33749U 09008A   24158.55338620  .00000073  00000+0  00000+0 0  9993
2 33749   0.0158 339.2458 0002146  95.4417 203.0344  1.00270433 56095
SES-7 (PROTOSTAR 2)     
1 34941U 09027A   24158.45268786 -.00000344  00000+0  00000+0 0  9995
2 34941   0.0450  71.5298 0000465 120.9356 334.1076  1.00270464 55193
NSS-12                  
1 36032U 09058A   24158.26716042  .00000073  00000+0  00000+0 0  9992
2 36032   0.0483  74.5439 0003849   5.1082 328.7034  1.00274131 53489
SES-1                   
1 36516U 10016A   24158.62314353 -.00000113  00000+0  00000+0 0  9990
2 36516   0.0167 326.5672 0002632 106.7886 305.4835  1.00271379 51607
ASTRA 3B                
1 36581U 10021A   24158.28194977  .00000139  00000+0  00000+0 0  9995
2 36581   0.0380  39.1488 0004413  35.7994 305.2317  1.00269369 51449
SES-3                   
1 37748U 11035A   24158.62098889 -.00000100  00000+0  00000+0 0  9999
2 37748   0.0278  31.2489 0002862  51.4086 293.4059  1.00271205 47165
ASTRA 1N                
1 37775U 11041A   24158.28116656  .00000122  00000+0  00000+0 0  9994
2 37775   0.0742  42.6109 0005297  24.2742 308.7383  1.00272387 37091
SES-2                   
1 37809U 11049A   24158.54630103 -.00000194  00000+0  00000+0 0  9997
2 37809   0.0285  46.1379 0002039  28.0573 290.9098  1.00271615 46531
QUETZSAT 1              
1 37826U 11054A   24158.39464741 -.00000240  00000+0  00000+0 0  9990
2 37826   0.0396  63.7450 0002776  32.3485 224.2715  1.00271485 42454
SES-4                   
1 38087U 12007A   24158.17688216 -.00000166  00000+0  00000+0 0  9997
2 38087   0.0255  38.2675 0002546  51.1273 207.3563  1.00270312 44793
SES-5                   
1 38652U 12036A   24158.37567535  .00000035  00000+0  00000+0 0  9993
2 38652   0.0352 319.5863 0001693 124.0505 311.8389  1.00269547 37059
ASTRA 2F                
1 38778U 12051A   24158.56927500  .00000151  00000+0  00000+0 0  9991
2 38778   0.0588 252.4144 0000947 296.2963 299.8519  1.00270836 33708
SES-6                   
1 39172U 13026A   24158.26933149 -.00000259  00000+0  00000+0 0  9996
2 39172   0.0207 333.3696 0001725 103.7473 234.4894  1.00270284 40299
O3B FM5                 
1 39188U 13031A   24158.08351145 -.00000022  00000+0  00000+0 0  9997
2 39188   0.0604  17.5629 0002686  53.1588 289.3070  5.00115014199963
O3B FM4                 
1 39189U 13031B   24158.33888008 -.00000023  00000+0  00000+0 0  9990
2 39189   0.0534 350.0233 0002698  81.1579 288.8476  5.00114951199992
O3B FM2                 
1 39190U 13031C   24158.43085352 -.00000023  00000+0  00000+0 0  9994
2 39190   0.0547 344.7534 0002610  88.0159 287.2588  5.00115490200052
O3B PFM                 
1 39191U 13031D   24158.45631507 -.00000023  00000+0  00000+0 0  9996
2 39191   0.0554   9.9744 0002627  65.9006 284.1536  5.00116174199615
ASTRA 2E                
1 39285U 13056A   24158.56927500  .00000152  00000+0  00000+0 0  9992
2 39285   0.0681  33.9381 0002688  32.1401  62.7860  1.00271137 39010
SES-8                   
1 39460U 13071A   24158.56422257 -.00000268  00000+0  00000+0 0  9992
2 39460   0.0236 281.0971 0002682 170.1028 102.3661  1.00269591 37002
ASTRA 5B                
1 39617U 14011B   24158.56831774  .00000139  00000+0  00000+0 0  9995
2 39617   0.0612 313.3179 0001874 133.4132  36.8363  1.00272082 37248
O3B FM3                 
1 40079U 14038A   24158.31090237 -.00000023  00000+0  00000+0 0  9995
2 40079   0.0546 358.1508 0004024 112.3171 249.5748  5.00114550175983
O3B FM7                 
1 40080U 14038B   24157.45792438 -.00000021  00000+0  00000+0 0  9991
2 40080   0.0577 354.8686 0002378  36.7630 328.3826  5.00116122180771
O3B FM6                 
1 40081U 14038C   24158.48441680 -.00000023  00000+0  00000+0 0  9998
2 40081   0.0537 357.3820 0002626  79.0721 283.5746  5.00115376180776
O3B FM8                 
1 40082U 14038D   24158.13813924 -.00000023  00000+0  00000+0 0  9995
2 40082   0.0546 356.7479 0002805  77.7781 285.5046  5.00115411180876
O3B FM10                
1 40348U 14083A   24158.36448390 -.00000023  00000+0  00000+0 0  9996
2 40348   0.0511   6.8498 0002641  68.8200 284.3590  5.00115521172832
O3B FM11                
1 40349U 14083B   24158.37769440 -.00000023  00000+0  00000+0 0  9990
2 40349   0.0558   6.7100 0002052  58.6792 294.6317  5.00115588172858
O3B FM12                
1 40350U 14083C   24158.40499484 -.00000023  00000+0  00000+0 0  9994
2 40350   0.0552   5.9208 0002482  70.7627 283.3436  5.00115613172860
O3B FM9                 
1 40351U 14083D   24158.43168544 -.00000023  00000+0  00000+0 0  9998
2 40351   0.0570   6.9566 0002623  68.5626 284.5093  5.00115964173019
ASTRA 2G                
1 40364U 14089A   24158.49758028  .00000151  00000+0  00000+0 0  9997
2 40364   0.0425   7.1226 0004847  51.6733  43.9067  1.00268648 34546
SES-9                   
1 41380U 16013A   24157.80695650 -.00000343  00000+0  00000+0 0  9994
2 41380   0.0166 312.6569 0002047 129.9030 210.9507  1.00270422 30005
SES-10                  
1 42432U 17017A   24156.83273986 -.00000269  00000+0  00000+0 0  9991
2 42432   0.0210  32.1757 0002308  44.0518  50.4057  1.00270764 26309
SES-15                  
1 42709U 17026A   24156.74885942  .00000064  00000+0  00000+0 0  9991
2 42709   0.0338  43.0779 0000100   4.4461 346.5894  1.00269736 26694
SES-11 (ECHOSTAR 105)   
1 42967U 17063A   24158.61983478 -.00000087  00000+0  00000+0 0  9995
2 42967   0.0172  27.5986 0001988  17.3880 328.6988  1.00271257 24296
SES-14                  
1 43175U 18012B   24157.84702319 -.00000276  00000+0  00000+0 0  9999
2 43175   0.0125 344.8834 0000738  92.0516  75.2350  1.00270161 23617
O3B FM15                
1 43231U 18024A   24155.49959070 -.00000017  00000+0  00000+0 0  9995
2 43231   0.0476   7.6097 0002664  68.6426 283.7779  5.00114878113823
O3B FM16                
1 43232U 18024B   24155.55235709 -.00000017  00000+0  00000+0 0  9999
2 43232   0.0438   9.6044 0002621  65.0424 285.3826  5.00115270113747
O3B FM14                
1 43233U 18024C   24156.79200751 -.00000020  00000+0  00000+0 0  9990
2 43233   0.0426   8.5973 0002861  64.8602 286.5741  5.00114816113817
O3B FM13                
1 43234U 18024D   24156.44567775 -.00000019  00000+0  00000+0 0  9993
2 43234   0.0623  11.6416 0002348  75.8293 272.5562  5.00115224113913
SES-12                  
1 43488U 18049A   24158.43941001 -.00000268  00000+0  00000+0 0  9996
2 43488   0.0325  52.8347 0000952 249.6029 206.0728  1.00270901 21992
O3B FM20                
1 44112U 19020A   24158.41734081 -.00000023  00000+0  00000+0 0  9996
2 44112   0.0509   6.1692 0002309  72.7980 281.0582  5.00115959 94519
O3B FM19                
1 44113U 19020B   24156.44567418 -.00000019  00000+0  00000+0 0  9991
2 44113   0.0773   8.4423 0002744  40.5238 311.0579  5.00115104 94288
O3B FM17                
1 44114U 19020C   24158.32444239 -.00000023  00000+0  00000+0 0  9991
2 44114   0.0377 346.7794 0002646  92.2605 280.9893  5.00116301 94464
O3B FM18                
1 44115U 19020D   24158.27088381 -.00000023  00000+0  00000+0 0  9998
2 44115   0.0511   6.5250 0002794  71.4432 282.0627  5.00116213 94587
SES-17                  
1 49332U 21095A   24155.84355125 -.00000268  00000+0  00000+0 0  9993
2 49332   0.0124  20.9963 0000873  48.1018  60.2555  1.00269289 10392
SES-22                  
1 52933U 22071A   24158.58844125  .00000111  00000+0  00000+0 0  9992
2 52933   0.0279 289.1052 0000360 293.0695 106.3689  1.00199032    88
SES-20                  
1 53960U 22123A   24156.28825405 -.00000096  00000+0  00000+0 0  9999
2 53960   0.0442 127.9200 0001836 320.9292 165.0264  1.00269597  6099
SES-21                  
1 53961U 22123B   24157.81577458  .00000072  00000+0  00000+0 0  9995
2 53961   0.0206  28.9620 0001047  43.5595 344.8831  1.00270842  6117
O3B MPOWER F1           
1 54755U 22174A   24157.74722403 -.00000022  00000+0  00000+0 0  9993
2 54755   0.0625 356.6938 0006841  79.9129 282.2258  5.00114308 28266
O3B MPOWER F2           
1 54756U 22174B   24158.48081262 -.00000023  00000+0  00000+0 0  9998
2 54756   0.0611 353.2363 0005450  86.7719 280.0528  5.00114610 28377
SES-18                  
1 55970U 23038A   24157.68434527 -.00000098  00000+0  00000+0 0  9996
2 55970   0.0218 280.8801 0000273 334.4782 142.5202  1.00272705  4665
SES-19                  
1 55971U 23038B   24158.59185358  .00000089  00000+0  00000+0 0  9992
2 55971   0.0317  63.9423 0001273   6.1627 263.5485  1.00273715  4645
O3B MPOWER F4           
1 56367U 23059A   24158.38118847 -.00000023  00000+0  00000+0 0  9990
2 56367   0.0607  12.7146 0007325  56.0738 291.2894  5.00114129 21549
O3B MPOWER F3           
1 56368U 23059B   24158.44822813 -.00000023  00000+0  00000+0 0  9993
2 56368   0.0605  14.2393 0005601  67.6935 278.1302  5.00115668 17677
O3B MPOWER F5           
1 58346U 23175A   24149.91915458 -.00000013  00000+0  00000+0 0  9999
2 58346   0.0382  11.4878 0006489  69.6460 278.9410  5.00113210 11947
O3B MPOWER F6           
1 58347U 23175B   24158.21465256 -.00000023  00000+0  00000+0 0  9990
2 58347   0.0472   9.7741 0004579  77.5148 272.7631  5.00114224 11286
